BEIJING 1               
1 28890U 05043A   23221.40792054  .00000481  00000+0  10566-3 0  9993
2 28890  98.1649 342.3552 0014012 308.6624  51.3322 14.61866901948196
HJ-1A                   
1 33320U 08041A   23221.36350086  .00000954  00000+0  13674-3 0  9996
2 33320  97.6435 239.0321 0019528 314.7430  45.2192 14.78572946804114
HJ-1B                   
1 33321U 08041B   23221.40465246  .00002117  00000+0  28880-3 0  9995
2 33321  97.6450 243.4430 0038973 359.8287   0.2905 14.79141849804126
YAOGAN 4                
1 33446U 08061A   23221.34603939  .00001521  00000+0  21502-3 0  9993
2 33446  97.8518 154.9994 0014753 215.9318 144.0903 14.78479358791318
DEIMOS-1                
1 35681U 09041A   23221.36669538  .00000726  00000+0  12122-3 0  9998
2 35681  97.6836  55.2294 0001208  25.2957 334.8311 14.72619473753262
UK-DMC 2                
1 35683U 09041C   23221.40416611  .00001146  00000+0  18889-3 0  9990
2 35683  97.7396  18.0090 0001518  78.2077 281.9302 14.72270202752974
RISAT 1                 
1 38248U 12017A   23221.03329438  .00008102  00000+0  41306-3 0  9995
2 38248  97.5417 233.7808 0001882 232.9360 127.1701 15.17018416622020
DMC3-FM1                
1 40715U 15032A   23221.41508123  .00000864  00000+0  11307-3 0  9994
2 40715  97.7927 103.8569 0004683 225.6829 134.4001 14.82845658435216
DMC3-FM2                
1 40716U 15032B   23221.43663766  .00000864  00000+0  11308-3 0  9993
2 40716  97.7975 104.7537 0006463 231.9200 128.1431 14.82860990435219
DMC3-FM3                
1 40717U 15032C   23221.39344178  .00000887  00000+0  11598-3 0  9998
2 40717  97.8016 105.8119 0008095 230.8272 129.2224 14.82835090435210
